IRIDIUM 116             
1 43072U 17083C   25155.41846448  .00000221  00000+0  72037-4 0  9999
2 43072  86.3958 119.9465 0002342  80.4236 279.7224 14.34211955390028
IRIDIUM 130             
1 43073U 17083D   25155.45651719  .00000145  00000+0  44587-4 0  9993
2 43073  86.3962 120.1692 0002631  82.4819 277.6675 14.34217432389975
IRIDIUM 151             
1 43074U 17083E   25155.43114807  .00000059  00000+0  13868-4 0  9996
2 43074  86.3956 119.9906 0002361  80.5524 279.5938 14.34217840389993
IRIDIUM 137             
1 43076U 17083G   25155.41211968  .00000040  00000+0  71338-5 0  9999
2 43076  86.3959 120.0865 0002191  69.7517 290.3914 14.34217804390028
IRIDIUM 141             
1 43077U 17083H   25155.61508296  .00000271  00000+0  89543-4 0  9997
2 43077  86.3953 119.8538 0002243  92.7772 267.3681 14.34217018390058
IRIDIUM 153             
1 43078U 17083J   25155.56725208  .00000264  00000+0  87183-4 0  9996
2 43078  86.3959  88.3429 0002424  96.4731 263.6740 14.34212382391157
